{
    "links": {
        "self": "http://www.neowsapp.com/rest/v1/neo/3653046?api_key=iIulBulltgU6a56xZRHN4H3l9WmuAYTsLGpBGhQ2"
    },
    "id": "3653046",
    "neo_reference_id": "3653046",
    "name": "(2013 UR1)",
    "designation": "2013 UR1",
    "nasa_jpl_url": "http://ssd.jpl.nasa.gov/sbdb.cgi?sstr=3653046",
    "absolute_magnitude_h": 27.9,
    "estimated_diameter": {
        "kilometers": {
            "estimated_diameter_min": 0.0069912523,
            "estimated_diameter_max": 0.0156329154
        },
        "meters": {
            "estimated_diameter_min": 6.9912523225,
            "estimated_diameter_max": 15.6329154409
        },
        "miles": {
            "estimated_diameter_min": 0.0043441614,
            "estimated_diameter_max": 0.0097138403
        },
        "feet": {
            "estimated_diameter_min": 22.9371802696,
            "estimated_diameter_max": 51.289094295
        }
    },
    "is_potentially_hazardous_asteroid": false,
    "close_approach_data": [
        {
            "close_approach_date": "2013-10-21",
            "close_approach_date_full": "2013-Oct-21 22:05",
            "epoch_date_close_approach": 1382393100000,
            "relative_velocity": {
                "kilometers_per_second": "21.8475846108",
                "kilometers_per_hour": "78651.3045988433",
                "miles_per_hour": "48870.8620158757"
            },
            "miss_distance": {
                "astronomical": "0.0016794621",
                "lunar": "0.6533107569",
                "kilometers": "251243.952905727",
                "miles": "156115.7531519526"
            },
            "orbiting_body": "Earth"
        },
        {
            "close_approach_date": "2013-10-22",
            "close_approach_date_full": "2013-Oct-22 02:11",
            "epoch_date_close_approach": 1382407860000,
            "relative_velocity": {
                "kilometers_per_second": "22.3727474502",
                "kilometers_per_hour": "80541.8908208201",
                "miles_per_hour": "50045.5987714146"
            },
            "miss_distance": {
                "astronomical": "0.0013404802",
                "lunar": "0.5214467978",
                "kilometers": "200532.982697174",
                "miles": "124605.4174180412"
            },
            "orbiting_body": "Moon"
        }
    ],
    "orbital_data": {
        "orbit_id": "7",
        "orbit_determination_date": "2017-04-06 08:44:03",
        "first_observation_date": "2013-10-23",
        "last_observation_date": "2013-10-30",
        "data_arc_in_days": 7,
        "observations_used": 25,
        "orbit_uncertainty": "8",
        "minimum_orbit_intersection": ".00143645",
        "jupiter_tisserand_invariant": "3.229",
        "epoch_osculation": "2456592.5",
        "eccentricity": ".7299974199045195",
        "semi_major_axis": "2.227528209310538",
        "inclination": "2.70482081662833",
        "ascending_node_longitude": "30.29245762318117",
        "orbital_period": "1214.320273604168",
        "perihelion_distance": ".6014383637493107",
        "perihelion_argument": "271.7992697669093",
        "aphelion_distance": "3.853618054871765",
        "perihelion_time": "2456542.086003989478",
        "mean_anomaly": "14.94584168468224",
        "mean_motion": ".2964621507401013",
        "equinox": "J2000",
        "orbit_class": {
            "orbit_class_type": "APO",
            "orbit_class_description": "Near-Earth asteroid orbits which cross the Earth’s orbit similar to that of 1862 Apollo",
            "orbit_class_range": "a (semi-major axis) > 1.0 AU; q (perihelion) < 1.017 AU"
        }
    },
    "is_sentry_object": false
}